#aV2014  3  7  0  0  0.00000000     288 DD+AD WGS84 FIT  NGA
## 1782 432000.00000000   300.00000000 56723 0.0000000000000
+   31     1  2  3  4  5  7  8  9 10 11 12 13 14 15 16 17 18
+         19 20 21 22 23 24 25 26 27 28 29 30 31 32  0  0  0
+          0  0  0  0  0  0  0  0  0  0  0  0  0  0  0  0  0
+          0  0  0  0  0  0  0  0  0  0  0  0  0  0  0  0  0
+          0  0  0  0  0  0  0  0  0  0  0  0  0  0  0  0  0
++         2  2  2  2  2  2  2  2  2  2  2  2  2  2  2  2  2
++         2  2  2  2  2  2  2  2  2  2  2  2  2  2  0  0  0
++         0  0  0  0  0  0  0  0  0  0  0  0  0  0  0  0  0
++         0  0  0  0  0  0  0  0  0  0  0  0  0  0  0  0  0
++         0  0  0  0  0  0  0  0  0  0  0  0  0  0  0  0  0
%c cc cc ccc ccc cccc cccc cccc cccc ccccc ccccc ccccc ccccc
%c cc cc ccc ccc cccc cccc cccc cccc ccccc ccccc ccccc ccccc
%f  0.0000000  0.000000000  0.00000000000  0.000000000000000
%f  0.0000000  0.000000000  0.00000000000  0.000000000000000
%i    0    0    0    0      0      0      0      0         0
%i    0    0    0    0      0      0      0      0         0
/*      NGA, ST. LOUIS,MO.                                  
/*   EPHEMERIS COMPUTED FROM  1 DAYS OF DATA                
/*   EPOCHA SMOOTHER                                       
/* CCCCCCCCCCCCCCCCCCCCCCCCCCCCCCCCCCCCCCCCCCCCCCCCCCCCCCCCC
*  2014  3  7  1  5  0.00000000
P  1   6370.180946 -18687.088102 -17737.611213      2.755036                    
V  1  19931.100778 -10597.056636  18476.056554      0.019325                    
P  2 -21800.798942  14677.789783     32.595553    482.446787                    
V  2  -1963.660321  -3422.307260 -31605.803815      0.021635                    
P  3   8781.544366 -18269.807909  16538.581817    334.709992                    
V  3   6713.393169  21272.302204  19471.390574      0.052600                    
P  4 -22792.026926   2666.172229 -13883.681376      5.964198                    
V  4  13000.449513 -11347.020728 -23816.962261      0.001834                    
P  5 -15674.689616   8012.494810  19892.220200   -385.552334                    
V  5 -22003.548031 -12640.413605 -12061.275495      0.017974                    
P  7  -8877.173532 -12089.330792  21997.065068    321.194998                    
V  7  23715.583636 -14342.222635   1377.670340      0.041913                    
P  8 -18586.851126  -4565.413344  18826.050388     12.194894                    
V  8  20773.067484 -10553.400919  17507.817422      0.001195                    
P  9 -19233.015481  -1819.489973  17772.184877    310.445522                    
V  9  19168.039581 -13709.361387  18626.534791      0.029488                    
P 10 -24666.693463  -8091.471368   6251.267436   -117.091860                    
V 10  -5907.967761  -6531.409977 -29728.047778     -0.015281                    
P 11   9308.033630 -23139.014418  -9300.889583   -469.933454                    
V 11  10741.208784  -5895.606398  27034.584765     -0.031614                    
P 12   1219.193722  16539.109533 -20854.866523    190.567661                    
V 12 -23087.223283 -12457.121515 -11042.434991      0.023704                    
P 13  -5407.270593 -23795.570462  10162.573443     22.835837                    
V 13   2955.665530 -12976.656456 -28573.675488     -0.039185                    
P 14  13711.832216   9599.481376 -20443.356180    192.690568                    
V 14  -1620.971195  26340.408034  11024.887791     -0.032475                    
P 15  -4896.130363  24225.918340   9273.393327   -166.792940                    
V 15  -4396.697482 -11668.509545  28288.623566     -0.020995                    
P 16  15864.630534  -6263.582985  20421.947927   -228.821786                    
V 16  21926.958340  13689.500287 -12461.972244      0.015827                    
P 17 -14347.548128  -7629.181469 -20803.695004    -74.132400                    
V 17    618.231167 -26926.632700   9111.122050     -0.032694                    
P 18  18493.925089  17192.187581   9199.200398    305.800836                    
V 18 -11273.524429  -2196.611455  27773.528183      0.022026                    
P 19   7964.403034 -23035.477768   9864.863188   -443.118246                    
V 19   2147.316853  12972.307957  28627.384361     -0.024412                    
P 20  -3363.265840 -17693.211990 -19731.435196    167.686140                    
V 20  23191.223546   8768.399075 -11857.992929      0.034603                    
P 21  11737.283347  11457.479030  21558.124535   -347.848606                    
V 21 -21722.911478  14299.655525   3873.197182     -0.022322                    
P 22  24388.751146  10395.610412  -2479.312328    217.795868                    
V 22   1271.239857   4948.962229  30605.100641      0.023727                    
P 23    138.711888 -26288.622443  -1463.134624     -1.691258                    
V 23   3511.147467   1878.411436 -31760.402888     -0.032278                    
P 24 -11330.103372  19331.265331 -14203.398470    -24.501327                    
V 24 -16362.098349   7967.387338  24008.484478     -0.006482                    
P 25  13973.925004  17848.865287 -14007.087717     17.491316                    
V 25 -16437.153024  -6531.572843 -24701.297404      0.015358                    
P 26 -12372.059941  15265.950787  17062.595000    146.126415                    
V 26   -607.803088 -23114.849332  19798.286058     -0.109153                    
P 27  12690.842610 -13362.720545  19109.313903    -20.082460                    
V 27   2507.592685  24186.152246  15288.171447     -0.005235                    
P 28 -22602.888865 -14088.071826    665.659580    337.642649                    
V 28   1065.891178  -1574.092189  32202.453740      0.028923                    
P 29   5263.651509  24849.560684   7888.781263    516.123629                    
V 29  -2426.962321   9920.145472 -29751.128310      0.029807                    
P 30   7267.439832 -18324.362965  18207.191603      2.364848                    
V 30  20639.029111  -9378.300124 -17685.684684      0.035564                    
P 31  23792.174127  -6161.217066 -10311.832939    333.675723                    
V 31 -10410.948140   8302.265419 -28238.701872      0.001991                    
P 32   9555.457120 -12201.631041 -21476.612457   -473.925937                    
V 32  23010.003318  15081.521634   2201.976111      0.069358                    
EOF
